CCSDS_OMM_VERS = 2.0
CREATION_DATE  = 
ORIGINATOR     = 

OBJECT_NAME    = ATLAS CENTAUR R/B
OBJECT_ID      = 1972-065B
CENTER_NAME    = EARTH
REF_FRAME      = TEME
TIME_SYSTEM    = UTC
MEAN_ELEMENT_THEORY = SGP/SGP4

EPOCH          = 2026-02-13T03:59:24.604800
MEAN_MOTION    = 14.77613377
ECCENTRICITY   = .0033596
INCLINATION    = 35.0013
RA_OF_ASC_NODE = 89.4596
ARG_OF_PERICENTER = 164.8488
MEAN_ANOMALY   = 195.3225

EPHEMERIS_TYPE = 0
CLASSIFICATION_TYPE = U
NORAD_CAT_ID   = 6155
ELEMENT_SET_NO = 999
REV_AT_EPOCH   = 83763
BSTAR          = .17918E-3
MEAN_MOTION_DOT = .1291E-4
MEAN_MOTION_DDOT = 0

CCSDS_OMM_VERS = 2.0
CREATION_DATE  = 
ORIGINATOR     = 

OBJECT_NAME    = SL-8 R/B
OBJECT_ID      = 1975-112B
CENTER_NAME    = EARTH
REF_FRAME      = TEME
TIME_SYSTEM    = UTC
MEAN_ELEMENT_THEORY = SGP/SGP4

EPOCH          = 2026-02-13T03:46:21.823392
MEAN_MOTION    = 14.38190948
ECCENTRICITY   = .001524
INCLINATION    = 74.0590
RA_OF_ASC_NODE = 64.0430
ARG_OF_PERICENTER = 166.2623
MEAN_ANOMALY   = 193.8949

EPHEMERIS_TYPE = 0
CLASSIFICATION_TYPE = U
NORAD_CAT_ID   = 8459
ELEMENT_SET_NO = 999
REV_AT_EPOCH   = 62834
BSTAR          = .69378E-4
MEAN_MOTION_DOT = .185E-5
MEAN_MOTION_DDOT = 0

CCSDS_OMM_VERS = 2.0
CREATION_DATE  = 
ORIGINATOR     = 

OBJECT_NAME    = SL-3 R/B
OBJECT_ID      = 1977-057B
CENTER_NAME    = EARTH
REF_FRAME      = TEME
TIME_SYSTEM    = UTC
MEAN_ELEMENT_THEORY = SGP/SGP4

EPOCH          = 2026-02-13T02:37:25.851072
MEAN_MOTION    = 15.44771704
ECCENTRICITY   = .0007716
INCLINATION    = 97.5734
RA_OF_ASC_NODE = 214.9675
ARG_OF_PERICENTER = 19.9866
MEAN_ANOMALY   = 340.1683

EPHEMERIS_TYPE = 0
CLASSIFICATION_TYPE = U
NORAD_CAT_ID   = 10114
ELEMENT_SET_NO = 999
REV_AT_EPOCH   = 66453
BSTAR          = .2672E-3
MEAN_MOTION_DOT = .12424E-3
MEAN_MOTION_DDOT = 0

CCSDS_OMM_VERS = 2.0
CREATION_DATE  = 
ORIGINATOR     = 

OBJECT_NAME    = SEASAT 1
OBJECT_ID      = 1978-064A
CENTER_NAME    = EARTH
REF_FRAME      = TEME
TIME_SYSTEM    = UTC
MEAN_ELEMENT_THEORY = SGP/SGP4

EPOCH          = 2026-02-13T00:12:55.735488
MEAN_MOTION    = 14.46140182
ECCENTRICITY   = .0001656
INCLINATION    = 108.0160
RA_OF_ASC_NODE = 73.7043
ARG_OF_PERICENTER = 291.2817
MEAN_ANOMALY   = 68.8152

EPHEMERIS_TYPE = 0
CLASSIFICATION_TYPE = U
NORAD_CAT_ID   = 10967
ELEMENT_SET_NO = 999
REV_AT_EPOCH   = 50294
BSTAR          = .11318E-3
MEAN_MOTION_DOT = .267E-5
MEAN_MOTION_DDOT = 0

CCSDS_OMM_VERS = 2.0
CREATION_DATE  = 
ORIGINATOR     = 

OBJECT_NAME    = SL-14 R/B
OBJECT_ID      = 1979-011B
CENTER_NAME    = EARTH
REF_FRAME      = TEME
TIME_SYSTEM    = UTC
MEAN_ELEMENT_THEORY = SGP/SGP4

EPOCH          = 2026-02-13T04:00:07.311456
MEAN_MOTION    = 14.91878169
ECCENTRICITY   = .0017205
INCLINATION    = 82.5247
RA_OF_ASC_NODE = 119.8404
ARG_OF_PERICENTER = 135.8336
MEAN_ANOMALY   = 224.4261

EPHEMERIS_TYPE = 0
CLASSIFICATION_TYPE = U
NORAD_CAT_ID   = 11267
ELEMENT_SET_NO = 999
REV_AT_EPOCH   = 52512
BSTAR          = .59059E-4
MEAN_MOTION_DOT = .624E-5
MEAN_MOTION_DDOT = 0

CCSDS_OMM_VERS = 2.0
CREATION_DATE  = 
ORIGINATOR     = 

OBJECT_NAME    = SL-8 R/B
OBJECT_ID      = 1979-089B
CENTER_NAME    = EARTH
REF_FRAME      = TEME
TIME_SYSTEM    = UTC
MEAN_ELEMENT_THEORY = SGP/SGP4

EPOCH          = 2026-02-13T04:36:42.223104
MEAN_MOTION    = 14.42335533
ECCENTRICITY   = .0016706
INCLINATION    = 74.0696
RA_OF_ASC_NODE = 136.3909
ARG_OF_PERICENTER = 312.0285
MEAN_ANOMALY   = 47.9449

EPHEMERIS_TYPE = 0
CLASSIFICATION_TYPE = U
NORAD_CAT_ID   = 11574
ELEMENT_SET_NO = 999
REV_AT_EPOCH   = 43257
BSTAR          = .93494E-4
MEAN_MOTION_DOT = .283E-5
MEAN_MOTION_DDOT = 0

CCSDS_OMM_VERS = 2.0
CREATION_DATE  = 
ORIGINATOR     = 

OBJECT_NAME    = SL-14 R/B
OBJECT_ID      = 1980-005B
CENTER_NAME    = EARTH
REF_FRAME      = TEME
TIME_SYSTEM    = UTC
MEAN_ELEMENT_THEORY = SGP/SGP4

EPOCH          = 2026-02-13T03:55:40.303488
MEAN_MOTION    = 14.90898299
ECCENTRICITY   = .0014199
INCLINATION    = 82.5174
RA_OF_ASC_NODE = 330.4942
ARG_OF_PERICENTER = 242.9332
MEAN_ANOMALY   = 117.0439

EPHEMERIS_TYPE = 0
CLASSIFICATION_TYPE = U
NORAD_CAT_ID   = 11672
ELEMENT_SET_NO = 999
REV_AT_EPOCH   = 47283
BSTAR          = .70978E-4
MEAN_MOTION_DOT = .726E-5
MEAN_MOTION_DDOT = 0

CCSDS_OMM_VERS = 2.0
CREATION_DATE  = 
ORIGINATOR     = 

OBJECT_NAME    = SL-8 R/B
OBJECT_ID      = 1981-003B
CENTER_NAME    = EARTH
REF_FRAME      = TEME
TIME_SYSTEM    = UTC
MEAN_ELEMENT_THEORY = SGP/SGP4

EPOCH          = 2026-02-13T03:47:28.295232
MEAN_MOTION    = 15.10086213
ECCENTRICITY   = .0262705
INCLINATION    = 82.9397
RA_OF_ASC_NODE = 312.6904
ARG_OF_PERICENTER = 264.2195
MEAN_ANOMALY   = 92.9034

EPHEMERIS_TYPE = 0
CLASSIFICATION_TYPE = U
NORAD_CAT_ID   = 12139
ELEMENT_SET_NO = 999
REV_AT_EPOCH   = 31097
BSTAR          = .43766E-3
MEAN_MOTION_DOT = .16552E-3
MEAN_MOTION_DDOT = 0

CCSDS_OMM_VERS = 2.0
CREATION_DATE  = 
ORIGINATOR     = 

OBJECT_NAME    = SL-3 R/B
OBJECT_ID      = 1981-046B
CENTER_NAME    = EARTH
REF_FRAME      = TEME
TIME_SYSTEM    = UTC
MEAN_ELEMENT_THEORY = SGP/SGP4

EPOCH          = 2026-02-13T02:52:42.472128
MEAN_MOTION    = 15.41303457
ECCENTRICITY   = .0020803
INCLINATION    = 81.2342
RA_OF_ASC_NODE = 319.2259
ARG_OF_PERICENTER = 102.9997
MEAN_ANOMALY   = 257.3570

EPHEMERIS_TYPE = 0
CLASSIFICATION_TYPE = U
NORAD_CAT_ID   = 12465
ELEMENT_SET_NO = 999
REV_AT_EPOCH   = 43464
BSTAR          = .32243E-3
MEAN_MOTION_DOT = .13568E-3
MEAN_MOTION_DDOT = 0

CCSDS_OMM_VERS = 2.0
CREATION_DATE  = 
ORIGINATOR     = 

OBJECT_NAME    = SL-3 R/B
OBJECT_ID      = 1981-103B
CENTER_NAME    = EARTH
REF_FRAME      = TEME
TIME_SYSTEM    = UTC
MEAN_ELEMENT_THEORY = SGP/SGP4

EPOCH          = 2026-02-13T02:32:19.369536
MEAN_MOTION    = 15.21071072
ECCENTRICITY   = .0013529
INCLINATION    = 81.1558
RA_OF_ASC_NODE = 242.2689
ARG_OF_PERICENTER = 12.7456
MEAN_ANOMALY   = 347.4114

EPHEMERIS_TYPE = 0
CLASSIFICATION_TYPE = U
NORAD_CAT_ID   = 12904
ELEMENT_SET_NO = 999
REV_AT_EPOCH   = 96949
BSTAR          = .24446E-3
MEAN_MOTION_DOT = .5468E-4
MEAN_MOTION_DDOT = 0

CCSDS_OMM_VERS = 2.0
CREATION_DATE  = 
ORIGINATOR     = 

OBJECT_NAME    = SL-3 R/B
OBJECT_ID      = 1982-013B
CENTER_NAME    = EARTH
REF_FRAME      = TEME
TIME_SYSTEM    = UTC
MEAN_ELEMENT_THEORY = SGP/SGP4

EPOCH          = 2026-02-13T02:59:07.468800
MEAN_MOTION    = 15.21740093
ECCENTRICITY   = .0021774
INCLINATION    = 81.1746
RA_OF_ASC_NODE = 189.5511
ARG_OF_PERICENTER = 262.3798
MEAN_ANOMALY   = 97.4961

EPHEMERIS_TYPE = 0
CLASSIFICATION_TYPE = U
NORAD_CAT_ID   = 13068
ELEMENT_SET_NO = 999
REV_AT_EPOCH   = 40061
BSTAR          = .2121E-3
MEAN_MOTION_DOT = .486E-4
MEAN_MOTION_DDOT = 0

CCSDS_OMM_VERS = 2.0
CREATION_DATE  = 
ORIGINATOR     = 

OBJECT_NAME    = SL-3 R/B
OBJECT_ID      = 1982-039B
CENTER_NAME    = EARTH
REF_FRAME      = TEME
TIME_SYSTEM    = UTC
MEAN_ELEMENT_THEORY = SGP/SGP4

EPOCH          = 2026-02-13T03:19:44.738400
MEAN_MOTION    = 15.09941148
ECCENTRICITY   = .0030068
INCLINATION    = 81.1604
RA_OF_ASC_NODE = 244.2617
ARG_OF_PERICENTER = 44.7246
MEAN_ANOMALY   = 315.6396

EPHEMERIS_TYPE = 0
CLASSIFICATION_TYPE = U
NORAD_CAT_ID   = 13154
ELEMENT_SET_NO = 999
REV_AT_EPOCH   = 37793
BSTAR          = .14404E-3
MEAN_MOTION_DOT = .2384E-4
MEAN_MOTION_DDOT = 0

