ATLAS CENTAUR R/B       
1 06155U 72065B   26044.16625700  .00001291  00000+0  17918-3 0  9991
2 06155  35.0013  89.4596 0033596 164.8488 195.3225 14.77613377837637
SL-8 R/B                
1 08459U 75112B   26044.15719703  .00000185  00000+0  69378-4 0  9991
2 08459  74.0590  64.0430 0015240 166.2623 193.8949 14.38190948628341
SL-3 R/B                
1 10114U 77057B   26044.10932698  .00012424  00000+0  26720-3 0  9999
2 10114  97.5734 214.9675 0007716  19.9866 340.1683 15.44771704664537
SEASAT 1                
1 10967U 78064A   26044.00897842  .00000267  00000+0  11318-3 0  9993
2 10967 108.0160  73.7043 0001656 291.2817  68.8152 14.46140182502944
SL-14 R/B               
1 11267U 79011B   26044.16675129  .00000624  00000+0  59059-4 0  9991
2 11267  82.5247 119.8404 0017205 135.8336 224.4261 14.91878169525128
SL-8 R/B                
1 11574U 79089B   26044.19215536  .00000283  00000+0  93494-4 0  9994
2 11574  74.0696 136.3909 0016706 312.0285  47.9449 14.42335533432575
SL-14 R/B               
1 11672U 80005B   26044.16366092  .00000726  00000+0  70978-4 0  9998
2 11672  82.5174 330.4942 0014199 242.9332 117.0439 14.90898299472838
SL-8 R/B                
1 12139U 81003B   26044.15796638  .00016552  00000+0  43766-3 0  9996
2 12139  82.9397 312.6904 0262705 264.2195  92.9034 15.10086213310976
SL-3 R/B                
1 12465U 81046B   26044.11993602  .00013568  00000+0  32243-3 0  9993
2 12465  81.2342 319.2259 0020803 102.9997 257.3570 15.41303457434644
SL-3 R/B                
1 12904U 81103B   26044.10577974  .00005468  00000+0  24446-3 0  9990
2 12904  81.1558 242.2689 0013529  12.7456 347.4114 15.21071072969491
SL-3 R/B                
1 13068U 82013B   26044.12439200  .00004860  00000+0  21210-3 0  9995
2 13068  81.1746 189.5511 0021774 262.3798  97.4961 15.21740093400614
SL-3 R/B                
1 13154U 82039B   26044.13871225  .00002384  00000+0  14404-3 0  9993
2 13154  81.1604 244.2617 0030068  44.7246 315.6396 15.09941148377930
